NORAD_CAT_ID,OBJECT_NAME,OBJECT_TYPE,EPOCH,MEAN_MOTION,ECCENTRICITY,INCLINATION,RA_OF_ASC_NODE,ARG_OF_PERICENTER,MEAN_ANOMALY,BSTAR,MEAN_MOTION_DOT,MEAN_MOTION_DDOT,TLE_LINE0,TLE_LINE1,TLE_LINE2,SEMIMAJOR_AXIS,PERIOD,APOGEE,PERIGEE,DECAYED
54781.0,STARLINK-5443,PAYLOAD,2023-11-17 22:43:28,15.08840685,0.0001345,53.2164,212.3561,81.0348,279.0796,6.9968e-05,8.26e-06,0.0,0 STARLINK-5443,1 54781U 22175Z   23321.94686156  .00000826  00000-0  69968-4 0  9996,2 54781  53.2164 212.3561 0001345  81.0348 279.0796 15.08840685 52906,6917.878,95.438,540.674,538.813,0.0
54781.0,STARLINK-5443,PAYLOAD,2023-11-18 01:54:14,15.08843782,0.0001384,53.2172,211.7642,92.0356,268.0794,8.8649e-05,1.123e-05,0.0,0 STARLINK-5443,1 54781U 22175Z   23322.07933915  .00001123  00000-0  88649-4 0  9997,2 54781  53.2172 211.7642 0001384  92.0356 268.0794 15.08843782 50761,6917.869,95.437,540.691,538.776,0.0
54781.0,STARLINK-5443,PAYLOAD,2023-11-18 09:51:10,15.08841898,0.0001389,53.217,210.2768,89.496,270.6191,3.7697e-05,3.12e-06,0.0,0 STARLINK-5443,1 54781U 22175Z   23322.41054183  .00000312  00000-0  37697-4 0  9992,2 54781  53.2170 210.2768 0001389  89.4960 270.6191 15.08841898 52979,6917.875,95.437,540.7,538.779,0.0
54781.0,STARLINK-5443,PAYLOAD,2023-11-19 00:09:39,15.08839616,0.0001495,53.2175,207.6006,86.4104,273.7059,0.00011117,1.482e-05,0.0,0 STARLINK-5443,1 54781U 22175Z   23323.00670210  .00001482  00000-0  11117-3 0  9990,2 54781  53.2175 207.6006 0001495  86.4104 273.7059 15.08839616 50907,6917.882,95.438,540.781,538.712,0.0
54781.0,STARLINK-5443,PAYLOAD,2023-11-19 09:41:57,15.08843415,0.0001434,53.218,205.8178,87.7996,272.316,0.0001075,1.423e-05,0.0,0 STARLINK-5443,1 54781U 22175Z   23323.40414060  .00001423  00000-0  10750-3 0  9990,2 54781  53.2180 205.8178 0001434  87.7996 272.3160 15.08843415 53126,6917.87,95.437,540.727,538.743,0.0
54781.0,STARLINK-5443,PAYLOAD,2023-11-19 22:25:02,15.08844403,0.0001457,53.2171,203.4396,88.8973,271.2186,6.5031e-05,7.47e-06,0.0,0 STARLINK-5443,1 54781U 22175Z   23323.93405919  .00000747  00000-0  65031-4 0  9992,2 54781  53.2171 203.4396 0001457  88.8973 271.2186 15.08844403 53207,6917.867,95.437,540.74,538.724,0.0
54781.0,STARLINK-5443,PAYLOAD,2023-11-20 01:35:48,15.08850218,0.0001541,53.2171,202.8427,85.8904,274.2264,8.9477e-05,1.137e-05,0.0,0 STARLINK-5443,1 54781U 22175Z   23324.06653458  .00001137  00000-0  89477-4 0  9994,2 54781  53.2171 202.8427 0001541  85.8904 274.2264 15.08850218 51063,6917.849,95.437,540.78,538.648,0.0
54781.0,STARLINK-5443,PAYLOAD,2023-11-20 09:32:45,15.08839366,0.0002025,53.2189,201.3561,79.6327,280.4894,3.2418e-05,2.28e-06,0.0,0 STARLINK-5443,1 54781U 22175Z   23324.39774415  .00000228  00000-0  32418-4 0  9990,2 54781  53.2189 201.3561 0002025  79.6327 280.4894 15.08839366 51118,6917.882,95.438,541.148,538.346,0.0
54781.0,STARLINK-5443,PAYLOAD,2023-11-20 22:15:49,15.08841461,0.000148,53.2168,198.9775,89.3643,270.7519,6.4311e-05,7.36e-06,0.0,0 STARLINK-5443,1 54781U 22175Z   23324.92766077  .00000736  00000-0  64311-4 0  9995,2 54781  53.2168 198.9775 0001480  89.3643 270.7519 15.08841461 53359,6917.876,95.437,540.765,538.717,0.0
54781.0,STARLINK-5443,PAYLOAD,2023-11-20 23:51:12,15.08842643,0.0001521,53.2167,198.6794,92.7754,267.3412,8.088e-05,1e-05,0.0,0 STARLINK-5443,1 54781U 22175Z   23324.99389962  .00001000  00000-0  80880-4 0  9990,2 54781  53.2167 198.6794 0001521  92.7754 267.3412 15.08842643 53361,6917.872,95.437,540.79,538.685,0.0
54781.0,STARLINK-5443,PAYLOAD,2023-11-21 15:45:04,15.08843601,0.0001728,53.2169,195.7044,94.2069,265.912,1.8847e-05,1.2e-07,0.0,0 STARLINK-5443,1 54781U 22175Z   23325.65630149  .00000012  00000-0  18847-4 0  9996,2 54781  53.2169 195.7044 0001728  94.2069 265.9120 15.08843601 51301,6917.869,95.437,540.93,538.539,0.0
54781.0,STARLINK-5443,PAYLOAD,2023-11-21 20:31:13,15.08845029,0.0001528,53.2163,194.813,94.3968,265.7198,7.9989e-05,9.85e-06,0.0,0 STARLINK-5443,1 54781U 22175Z   23325.85501920  .00000985  00000-0  79989-4 0  9995,2 54781  53.2163 194.8130 0001528  94.3968 265.7198 15.08845029 53499,6917.865,95.437,540.787,538.673,0.0
54781.0,STARLINK-5443,PAYLOAD,2023-11-21 22:06:36,15.08844995,0.0001554,53.2157,194.5159,92.5302,267.5868,9.0308e-05,1.15e-05,0.0,0 STARLINK-5443,1 54781U 22175Z   23325.92125989  .00001150  00000-0  90308-4 0  9993,2 54781  53.2157 194.5159 0001554  92.5302 267.5868 15.08844995 53508,6917.865,95.437,540.805,538.655,0.0
54781.0,STARLINK-5443,PAYLOAD,2023-11-22 18:46:37,15.08846155,0.000157,53.2157,190.6508,90.556,269.5612,0.00018113,2.596e-05,0.0,0 STARLINK-5443,1 54781U 22175Z   23326.78237852  .00002596  00000-0  18113-3 0  9999,2 54781  53.2157 190.6508 0001570  90.5560 269.5612 15.08846155 51478,6917.862,95.437,540.813,538.64,0.0
54781.0,STARLINK-5443,PAYLOAD,2023-11-22 20:22:00,15.08846512,0.0001565,53.2158,190.3534,90.5981,269.5191,0.00018595,2.673e-05,0.0,0 STARLINK-5443,1 54781U 22175Z   23326.84861851  .00002673  00000-0  18595-3 0  9998,2 54781  53.2158 190.3534 0001565  90.5981 269.5191 15.08846512 53646,6917.86,95.437,540.808,538.643,0.0
54781.0,STARLINK-5443,PAYLOAD,2023-11-22 21:57:23,15.08849141,0.0001546,53.2156,190.0567,88.8921,271.2248,0.00019396,2.801e-05,0.0,0 STARLINK-5443,1 54781U 22175Z   23326.91485702  .00002801  00000-0  19396-3 0  9996,2 54781  53.2156 190.0567 0001546  88.8921 271.2248 15.08849141 53655,6917.852,95.437,540.787,538.648,0.0
54781.0,STARLINK-5443,PAYLOAD,2023-11-23 20:12:48,15.08828272,0.0001452,53.2155,185.8923,100.6661,259.4494,-0.0001262,-2.295e-05,0.0,0 STARLINK-5443,1 54781U 22175Z   23327.84222867 -.00002295  00000-0 -12620-3 0  9992,2 54781  53.2155 185.8923 0001452 100.6661 259.4494 15.08828272 51631,6917.916,95.438,540.786,538.777,0.0
54781.0,STARLINK-5443,PAYLOAD,2023-11-24 13:42:03,15.08832195,0.0001399,53.2149,182.6161,100.8816,259.2334,-8.9857e-05,-1.717e-05,0.0,0 STARLINK-5443,1 54781U 22175Z   23328.57087130 -.00001717  00000-0 -89857-4 0  9990,2 54781  53.2149 182.6161 0001399 100.8816 259.2334 15.08832195 53909,6917.904,95.438,540.737,538.801,0.0
54781.0,STARLINK-5443,PAYLOAD,2023-11-24 20:03:35,15.08841461,0.000144,53.2152,181.4338,102.0181,258.0973,7.9355e-05,9.75e-06,0.0,0 STARLINK-5443,1 54781U 22175Z   23328.83582707  .00000975  00000-0  79355-4 0  9994,2 54781  53.2152 181.4338 0001440 102.0181 258.0973 15.08841461 51788,6917.876,95.437,540.737,538.745,0.0
54781.0,STARLINK-5443,PAYLOAD,2023-11-24 23:14:21,15.0884768,0.0001369,53.215,180.8379,96.9604,263.1544,0.00014874,2.081e-05,0.0,0 STARLINK-5443,1 54781U 22175Z   23328.96830436  .00002081  00000-0  14874-3 0  9997,2 54781  53.2150 180.8379 0001369  96.9604 263.1544 15.08847680 53967,6917.857,95.437,540.669,538.775,0.0
54781.0,STARLINK-5443,PAYLOAD,2023-11-25 21:29:45,15.08864345,0.000153,53.2147,176.675,75.6939,284.4223,0.00067785,0.00010524,0.0,0 STARLINK-5443,1 54781U 22175Z   23329.89566357  .00010524  00000-0  67785-3 0  9998,2 54781  53.2147 176.6750 0001530  75.6939 284.4223 15.08864345 54108,6917.806,95.436,540.729,538.613,0.0
54781.0,STARLINK-5443,PAYLOAD,2023-11-26 19:45:09,15.08827825,0.0002199,53.2145,172.5111,59.9261,300.1948,-0.00044817,-7.412e-05,0.0,0 STARLINK-5443,1 54781U 22175Z   23330.82302626 -.00007412  00000-0 -44817-3 0  9995,2 54781  53.2145 172.5111 0002199  59.9261 300.1948 15.08827825 52084,6917.918,95.438,541.304,538.261,0.0
54781.0,STARLINK-5443,PAYLOAD,2023-11-26 21:20:31,15.08866865,0.0002199,53.2147,172.2138,53.0697,307.0497,0.000456,6.982e-05,0.0,0 STARLINK-5443,1 54781U 22175Z   23330.88925636  .00006982  00000-0  45600-3 0  9993,2 54781  53.2147 172.2138 0002199  53.0697 307.0497 15.08866865 54253,6917.798,95.436,541.184,538.142,0.0
54781.0,STARLINK-5443,PAYLOAD,2023-11-26 22:55:55,15.08855894,0.0001987,53.2147,171.9164,58.9698,301.1489,0.00020961,3.051e-05,0.0,0 STARLINK-5443,1 54781U 22175Z   23330.95549808  .00003051  00000-0  20961-3 0  9991,2 54781  53.2147 171.9164 0001987  58.9698 301.1489 15.08855894 52105,6917.832,95.437,541.071,538.322,0.0
54781.0,STARLINK-5443,PAYLOAD,2023-11-27 13:14:23,15.08835523,0.0001301,53.2154,169.2405,70.7286,289.3846,-0.00022635,-3.888e-05,0.0,0 STARLINK-5443,1 54781U 22175Z   23331.55166319 -.00003888  00000-0 -22635-3 0  9990,2 54781  53.2154 169.2405 0001301  70.7286 289.3846 15.08835523 54356,6917.894,95.438,540.659,538.859,0.0
54781.0,STARLINK-5443,PAYLOAD,2023-11-27 18:00:33,15.08834276,0.0001542,53.2142,168.3494,69.0546,291.0611,-0.00015924,-2.821e-05,0.0,0 STARLINK-5443,1 54781U 22175Z   23331.75038544 -.00002821  00000-0 -15924-3 0  9999,2 54781  53.2142 168.3494 0001542  69.0546 291.0611 15.08834276 52226,6917.898,95.438,540.83,538.696,0.0
54781.0,STARLINK-5443,PAYLOAD,2023-11-28 19:26:43,15.08839969,0.0001379,53.2154,163.5892,85.1184,274.9965,0.00020345,2.951e-05,0.0,0 STARLINK-5443,1 54781U 22175Z   23332.81022730  .00002951  00000-0  20345-3 0  9992,2 54781  53.2154 163.5892 0001379  85.1184 274.9965 15.08839969 52386,6917.88,95.438,540.699,538.792,0.0
54781.0,STARLINK-5443,PAYLOAD,2023-11-30 17:32:54,15.08843258,0.0001539,53.2163,154.9675,105.847,254.2692,0.0001213,1.643e-05,0.0,0 STARLINK-5443,1 54781U 22175Z   23334.73118892  .00001643  00000-0  12130-3 0  9990,2 54781  53.2163 154.9675 0001539 105.8470 254.2692 15.08843258 52671,6917.87,95.437,540.8,538.671,0.0
54781.0,STARLINK-5443,PAYLOAD,2023-12-01 17:23:41,15.08840063,0.0001598,53.2166,150.5068,110.0925,250.0239,5.7474e-05,6.27e-06,0.0,0 STARLINK-5443,1 54781U 22175Z   23335.72478900  .00000627  00000-0  57474-4 0  9991,2 54781  53.2166 150.5068 0001598 110.0925 250.0239 15.08840063 54988,6917.88,95.438,540.851,538.64,0.0
54781.0,STARLINK-5443,PAYLOAD,2023-12-02 12:28:19,15.08846636,0.0001273,53.2163,146.9385,90.9009,269.2129,0.00015768,2.223e-05,0.0,0 STARLINK-5443,1 54781U 22175Z   23336.51966604  .00002223  00000-0  15768-3 0  9995,2 54781  53.2163 146.9385 0001273  90.9009 269.2129 15.08846636 55102,6917.86,95.437,540.606,538.844,0.0
